COSMOS 2058             
1 20465U 90010A   26162.51020962  .00003433  00000+0  19828-3 0  9992
2 20465  82.4661 314.9538 0009952  20.7009 339.4622 15.11973969956417
SL-14 R/B               
1 20466U 90010B   26162.50264862  .00000330  00000+0  37053-4 0  9995
2 20466  82.5016 179.2835 0019596 355.3900   4.7131 14.83642626942397
SL-14 R/B               
1 20511U 90018B   26162.40820262  .00000325  00000+0  37752-4 0  9995
2 20511  82.5207 135.5092 0017120 139.4645 220.7848 14.82212239936466
HST                     
1 20580U 90037B   26162.21026604  .00005021  00000+0  15696-3 0  9999
2 20580  28.4707 121.4212 0001970  81.6673 278.4146 15.30680019787654
SL-16 R/B               
1 20625U 90046B   26162.57563544  .00000289  00000+0  17355-3 0  9992
2 20625  70.9991 100.7330 0013815 170.1513 189.9883 14.15023716861676
COSMOS 2084             
1 20663U 90055A   26161.95318924  .00001751  00000+0  13298-3 0  9992
2 20663  62.7912  17.3685 0005478 267.7659  92.2815 15.06090587950363
SL-6 R/B(2)             
1 20666U 90055D   26162.59733530  .00001449  00000+0  11745-3 0  9999
2 20666  62.7826 294.3977 0039736   4.3896 355.7544 15.03984738952313
SL-8 R/B                
1 20775U 90078B   26162.49537720  .00019183  00000+0  54013-3 0  9996
2 20775  82.9014 166.7865 0352190  57.6230 305.8559 14.92097617823272
SL-8 R/B                
1 21088U 91006B   26162.33569193  .00000034  00000+0  18430-4 0  9997
2 21088  82.9424 100.3866 0023442 130.1448 343.6788 13.77505484776968
OKEAN-3                 
1 21397U 91039A   26162.62135038  .00001852  00000+0  12726-3 0  9995
2 21397  82.5160 245.7782 0014482  18.2645 341.9099 15.05299149879167
COSMOS 2151             
1 21422U 91042A   26162.59120184  .00001423  00000+0  11087-3 0  9993
2 21422  82.4960 353.0820 0013799 100.7433 259.5346 15.00422009877278
SL-14 R/B               
1 21423U 91042B   26162.61608757  .00000338  00000+0  39727-4 0  9990
2 21423  82.4924 132.1200 0015564 295.0051  64.9547 14.81899025866984
ERS-1                   
1 21574U 91050A   26162.60420746  .00000271  00000+0  10141-3 0  9999
2 21574  98.7798 183.1657 0030723 284.2531  75.5245 14.39513953829246
ARIANE 40 R/B           
1 21610U 91050F   26162.57094826  .00000241  00000+0  84481-4 0  9998
2 21610  98.1877 211.2064 0004029 133.4493 226.7033 14.42953806832536
INTERCOSMOS 25          
1 21819U 91086A   26162.49941964  .00000444  00000+0  88476-4 0  9996
2 21819  82.6057 253.2518 1484229 274.6741  68.6936 12.12188873508055
SL-8 R/B                
1 21876U 92008B   26162.60990655  .00000125  00000+0  11337-3 0  9995
2 21876  82.9264 197.9343 0033535 230.7167 242.5457 13.75975437722335
SL-8 R/B                
1 21938U 92020B   26162.54963970  .00000037  00000+0  22257-4 0  9997
2 21938  82.9306  84.0446 0030056  37.9129 140.8127 13.75548269714032
USA 81                  
1 21949U 92023A   26162.26720940  .00000133  00000+0  41727-4 0  9999
2 21949  85.0078  77.4240 0002782  90.0699 270.0813 14.32396597108189
COSMOS 2219             
1 22219U 92076A   26162.46086980  .00000111  00000+0  82986-4 0  9997
2 22219  71.0575 182.0431 0016332  53.5171 306.7454 14.14096146731634
SL-16 R/B               
1 22220U 92076B   26162.59305559 -.00000129  00000+0 -40552-4 0  9993
2 22220  71.0004 350.5664 0014538 305.9305 111.5850 14.16871230735130
COSMOS 2221             
1 22236U 92080A   26162.58936625  .00001204  00000+0  10356-3 0  9999
2 22236  82.5031 189.1278 0012862 232.7797 127.2252 14.96519274794838
SL-16 R/B               
1 22285U 92093B   26162.44754698 -.00000232  00000+0 -94362-4 0  9992
2 22285  71.0199 167.4408 0004275 197.4318 162.6659 14.15463805726422
COSMOS 2228             
1 22286U 92094A   26162.60875953  .00001751  00000+0  14735-3 0  9990
2 22286  82.5171 147.3860 0017456 351.6300   8.4628 14.97566559790119
SL-16 R/B               
1 22566U 93016B   26162.35634578  .00000251  00000+0  15348-3 0  9999
2 22566  71.0081  18.4546 0010595 191.7637 168.3240 14.15310327715422
COSMOS 2242             
1 22626U 93024A   26162.49881773  .00001452  00000+0  12406-3 0  9997
2 22626  82.5179 176.9851 0015927 355.9076   4.2013 14.96886718794422
SL-16 R/B               
1 22803U 93059B   26162.49058635  .00000281  00000+0  16294-3 0  9993
2 22803  70.9884 173.3170 0015064  63.8399 296.4272 14.17246336692825
ARIANE 40 R/B           
1 22830U 93061H   26162.61914030  .00000151  00000+0  70908-4 0  9999
2 22830  98.4819 229.5917 0010829  12.9462 347.1998 14.32905559707553
COSMOS 2278             
1 23087U 94023A   26162.58909705  .00000305  00000+0  18383-3 0  9991
2 23087  71.0546 338.6381 0010588 249.5584 110.4402 14.14395475658088
SL-16 R/B               
1 23088U 94023B   26162.59335294  .00000299  00000+0  17905-3 0  9990
2 23088  70.9993 233.6789 0003135 191.8567 168.2483 14.15021446659377
SL-16 R/B               
1 23343U 94074B   26162.61124352  .00000357  00000+0  54327-4 0  9999
2 23343  97.6993 189.5644 0005081 277.1719 195.7673 14.79497653701130
