OBJECT_NAME,OBJECT_ID,EPOCH,MEAN_MOTION,ECCENTRICITY,INCLINATION,RA_OF_ASC_NODE,ARG_OF_PERICENTER,MEAN_ANOMALY,EPHEMERIS_TYPE,CLASSIFICATION_TYPE,NORAD_CAT_ID,ELEMENT_SET_NO,REV_AT_EPOCH,BSTAR,MEAN_MOTION_DOT,MEAN_MOTION_DDOT
COSMOS 2058,1990-010A,2026-06-11T12:14:42.111168,15.11973969,.00099521,82.4661,314.9538,20.7009,339.4622,0,U,20465,999,95641,.19828185E-3,.3433E-4,0
SL-14 R/B,1990-010B,2026-06-11T12:03:48.840768,14.83642626,.00195967,82.5016,179.2835,355.3900,4.7131,0,U,20466,999,94239,.37053277E-4,.33E-5,0
SL-14 R/B,1990-018B,2026-06-11T09:47:48.706368,14.82212239,.00171208,82.5207,135.5092,139.4645,220.7848,0,U,20511,999,93646,.37752077E-4,.325E-5,0
HST,1990-037B,2026-06-11T05:02:46.985856,15.30680019,.00019704,28.4707,121.4212,81.6673,278.4146,0,U,20580,999,78765,.1569585E-3,.5021E-4,0
SL-16 R/B,1990-046B,2026-06-11T13:48:54.902016,14.15023716,.00138156,70.9991,100.7330,170.1513,189.9883,0,U,20625,999,86167,.17355203E-3,.289E-5,0
COSMOS 2084,1990-055A,2026-06-10T22:52:35.550336,15.06090587,.00054783,62.7912,17.3685,267.7659,92.2815,0,U,20663,999,95036,.13298196E-3,.1751E-4,0
SL-6 R/B(2),1990-055D,2026-06-11T14:20:09.769920,15.03984738,.00397365,62.7826,294.3977,4.3896,355.7544,0,U,20666,999,95231,.11744944E-3,.1449E-4,0
SL-8 R/B,1990-078B,2026-06-11T11:53:20.590080,14.92097617,.03521909,82.9014,166.7865,57.6230,305.8559,0,U,20775,999,82327,.54013356E-3,.19183E-3,0
SL-8 R/B,1991-006B,2026-06-11T08:03:23.782752,13.77505484,.00234429,82.9424,100.3866,130.1448,343.6788,0,U,21088,999,77696,.18429912E-4,.34E-6,0
OKEAN-3,1991-039A,2026-06-11T14:54:44.672832,15.05299149,.00144827,82.5160,245.7782,18.2645,341.9099,0,U,21397,999,87916,.12725774E-3,.1852E-4,0
COSMOS 2151,1991-042A,2026-06-11T14:11:19.838976,15.00422009,.00137998,82.4960,353.0820,100.7433,259.5346,0,U,21422,999,87727,.11087493E-3,.1423E-4,0
SL-14 R/B,1991-042B,2026-06-11T14:47:09.966048,14.81899025,.00155642,82.4924,132.1200,295.0051,64.9547,0,U,21423,999,86698,.39727027E-4,.338E-5,0
ERS-1,1991-050A,2026-06-11T14:30:03.524544,14.39513953,.00307234,98.7798,183.1657,284.2531,75.5245,0,U,21574,999,82924,.10141232E-3,.271E-5,0
ARIANE 40 R/B,1991-050F,2026-06-11T13:42:09.929664,14.42953806,.00040298,98.1877,211.2064,133.4493,226.7033,0,U,21610,999,83253,.84481376E-4,.241E-5,0
INTERCOSMOS 25,1991-086A,2026-06-11T11:59:09.856896,12.12188873,.14842296,82.6057,253.2518,274.6741,68.6936,0,U,21819,999,50805,.88475788E-4,.444E-5,0
SL-8 R/B,1992-008B,2026-06-11T14:38:15.925920,13.75975437,.00335355,82.9264,197.9343,230.7167,242.5457,0,U,21876,999,72233,.11336541E-3,.125E-5,0
SL-8 R/B,1992-020B,2026-06-11T13:11:28.870080,13.75548269,.00300567,82.9306,84.0446,37.9129,140.8127,0,U,21938,999,71403,.22257332E-4,.37E-6,0
USA 81,1992-023A,2026-06-11T06:24:46.892160,14.32396597,.00027825,85.0078,77.4240,90.0699,270.0813,0,U,21949,999,10818,.41727467E-4,.133E-5,0
COSMOS 2219,1992-076A,2026-06-11T11:03:39.150720,14.14096146,.00163326,71.0575,182.0431,53.5171,306.7454,0,U,22219,999,73163,.82986161E-4,.111E-5,0
SL-16 R/B,1992-076B,2026-06-11T14:14:00.002976,14.16871230,.00145388,71.0004,350.5664,305.9305,111.5850,0,U,22220,999,73513,-.40551653E-4,-.129E-5,0
COSMOS 2221,1992-080A,2026-06-11T14:08:41.244000,14.96519274,.0012862,82.5031,189.1278,232.7797,127.2252,0,U,22236,999,79483,.10355695E-3,.1204E-4,0
SL-16 R/B,1992-093B,2026-06-11T10:44:28.059072,14.15463805,.00042755,71.0199,167.4408,197.4318,162.6659,0,U,22285,999,72642,-.9436245E-4,-.232E-5,0
COSMOS 2228,1992-094A,2026-06-11T14:36:36.823392,14.97566559,.00174566,82.5171,147.3860,351.6300,8.4628,0,U,22286,999,79011,.14735279E-3,.1751E-4,0
SL-16 R/B,1993-016B,2026-06-11T08:33:08.275392,14.15310327,.00105957,71.0081,18.4546,191.7637,168.3240,0,U,22566,999,71542,.15348078E-3,.251E-5,0
COSMOS 2242,1993-024A,2026-06-11T11:58:17.851872,14.96886718,.00159271,82.5179,176.9851,355.9076,4.2013,0,U,22626,999,79442,.12405513E-3,.1452E-4,0
SL-16 R/B,1993-059B,2026-06-11T11:46:26.660640,14.17246336,.00150642,70.9884,173.3170,63.8399,296.4272,0,U,22803,999,69282,.1629427E-3,.281E-5,0
ARIANE 40 R/B,1993-061H,2026-06-11T14:51:33.721920,14.32905559,.0010829,98.4819,229.5917,12.9462,347.1998,0,U,22830,999,70755,.70908156E-4,.151E-5,0
COSMOS 2278,1994-023A,2026-06-11T14:08:17.985120,14.14395475,.00105889,71.0546,338.6381,249.5584,110.4402,0,U,23087,999,65808,.18383273E-3,.305E-5,0
SL-16 R/B,1994-023B,2026-06-11T14:14:25.694016,14.15021446,.0003135,70.9993,233.6789,191.8567,168.2483,0,U,23088,999,65937,.17905424E-3,.299E-5,0
SL-16 R/B,1994-074B,2026-06-11T14:40:11.440128,14.79497653,.00050812,97.6993,189.5644,277.1719,195.7673,0,U,23343,999,70113,.54327412E-4,.357E-5,0
